      2.10          N: GNSS NAV DATA                        RINEX VERSION / TYPE
fic2rin                                 09/02/2022 00:17:32 PGM / RUN BY / DATE
                                                            END OF HEADER
31 22  9  1  2  0  0.0 -.191725790501D-03 -.136424205266D-11  .000000000000D+00
     .620000000000D+02  .487812500000D+02  .466090843126D-08  .161772996744D+01
     .274181365967D-05  .104777155211D-01  .114534050226D-04  .515357878304D+04
     .352800000000D+06 -.800937414169D-07 -.226657342665D+01  .216066837311D-06
     .954902175874D+00  .157500000000D+03  .416813791133D+00 -.809498004555D-08
    -.310727228751D-10  .100000000000D+01  .222500000000D+04  .000000000000D+00
     .240000000000D+01  .000000000000D+00 -.135041773319D-07  .620000000000D+02
     .345600000000D+06  .400000000000D+01
30 22  9  1  2  0  0.0 -.536572653800D-03 -.341060513165D-12  .000000000000D+00
     .500000000000D+02  .380000000000D+02  .506021077809D-08  .204978957982D+01
     .206194818020D-05  .595263915602D-02  .118799507618D-04  .515372640800D+04
     .352800000000D+06 -.176951289177D-06 -.227530890841D+01  .186264514923D-07
     .935880013011D+00  .138031250000D+03 -.265270863484D+01 -.824070040111D-08
     .328585115460D-10  .100000000000D+01  .222500000000D+04  .000000000000D+00
     .240000000000D+01  .000000000000D+00  .372529029846D-08  .500000000000D+02
     .345600000000D+06  .400000000000D+01
24 22  9  1  2  0  0.0  .150535255671D-03 -.123918653117D-10  .000000000000D+00
     .500000000000D+02  .201250000000D+02  .495449208877D-08  .310993126473D+01
     .907108187675D-06  .128914851230D-01  .117979943752D-04  .515368183327D+04
     .352800000000D+06 -.260770320892D-07 -.237154609065D+01 -.191852450371D-06
     .934338006654D+00  .138031250000D+03  .832033071780D+00 -.796568894578D-08
     .310727228751D-10  .100000000000D+01  .222500000000D+04  .000000000000D+00
     .240000000000D+01  .000000000000D+00  .279396772385D-08  .500000000000D+02
     .345600000000D+06  .400000000000D+01
19 22  9  1  2  0  0.0  .204720534384D-03  .500222085975D-11  .000000000000D+00
     .330000000000D+02 -.668437500000D+02  .431482258682D-08  .939630611661D+00
    -.386871397495D-05  .918364711106D-02  .597722828388D-05  .515371717644D+04
     .352800000000D+06  .128522515297D-06 -.882726875632D-01 -.132247805595D-06
     .976839217640D+00  .275781250000D+03  .216374450670D+01 -.819891294621D-08
    -.506092509356D-09  .100000000000D+01  .222500000000D+04  .000000000000D+00
     .240000000000D+01  .000000000000D+00 -.153668224812D-07  .330000000000D+02
     .345600000000D+06  .400000000000D+01
22 22  9  1  2  0  0.0  .319837126881D-03  .670752342558D-11  .000000000000D+00
     .310000000000D+02 -.483750000000D+02  .466269421993D-08 -.144723532389D+01
    -.220537185669D-05  .134375137277D-01  .820122659206D-05  .515373233986D+04
     .352800000000D+06  .134110450745D-06  .302932535339D+01  .325962901115D-06
     .962145114006D+00  .219250000000D+03 -.184440593173D+01 -.806247869174D-08
    -.252510518077D-09  .100000000000D+01  .222500000000D+04  .000000000000D+00
     .240000000000D+01  .000000000000D+00 -.791624188423D-08  .310000000000D+02
     .345600000000D+06  .400000000000D+01
32 22  9  1  2  0  0.0 -.220054760575D-03 -.110276232590D-10  .000000000000D+00
     .115000000000D+03 -.526250000000D+02  .480055710533D-08 -.545726651614D+00
    -.260397791862D-05  .607054983266D-02  .748783349991D-05  .515363969040D+04
     .352800000000D+06 -.167638063431D-07  .293844543860D+01  .931322574615D-07
     .958940969386D+00  .236750000000D+03 -.228922001294D+01 -.827034449304D-08
    -.231081054025D-09  .100000000000D+01  .222500000000D+04  .000000000000D+00
     .240000000000D+01  .000000000000D+00  .465661287308D-09  .115000000000D+03
     .345600000000D+06  .400000000000D+01
27 22  9  1  2  0  0.0  .215699430555D-03 -.306954461848D-11  .000000000000D+00
     .590000000000D+02 -.586562500000D+02  .439911181209D-08 -.125077354797D+01
    -.304915010929D-05  .105657648528D-01  .601448118687D-05  .515365908051D+04
     .352800000000D+06  .223517417908D-06 -.196765353370D+00  .000000000000D+00
     .971346865799D+00  .269281250000D+03  .689025234061D+00 -.813355308085D-08
    -.448590114150D-09  .100000000000D+01  .222500000000D+04  .000000000000D+00
     .240000000000D+01  .000000000000D+00  .139698386192D-08  .590000000000D+02
     .345600000000D+06  .400000000000D+01
18 22  9  1  2  0  0.0  .634761527181D-04 -.125055521494D-10  .000000000000D+00
     .119000000000D+03 -.800000000000D+01  .394802159380D-08  .309718660477D+01
    -.463798642159D-06  .277437560726D-02  .105407088995D-04  .515372993279D+04
     .352800000000D+06 -.204890966415D-07  .870986740071D+00  .372529029846D-08
     .972307220316D+00  .182906250000D+03  .304596721541D+01 -.776675208783D-08
     .116790579082D-09  .100000000000D+01  .222500000000D+04  .000000000000D+00
     .240000000000D+01  .000000000000D+00 -.838190317154D-08  .119000000000D+03
     .345600000000D+06  .400000000000D+01
26 22  9  1  2  0  0.0  .226455740631D-03  .181898940355D-11  .000000000000D+00
     .930000000000D+02  .729062500000D+02  .548665711272D-08  .496051966235D+00
     .392273068428D-05  .712230126373D-02  .426173210144D-05  .515380563545D+04
     .352800000000D+06  .707805156708D-07 -.130118097244D+01  .100582838058D-06
     .936135189811D+00  .280343750000D+03  .383656599260D+00 -.876822237451D-08
     .621454457501D-10  .100000000000D+01  .222500000000D+04  .000000000000D+00
     .240000000000D+01  .000000000000D+00  .698491930962D-08  .930000000000D+02
     .345600000000D+06  .400000000000D+01
17 22  9  1  2  0  0.0  .654486939311D-03  .397903932026D-11  .000000000000D+00
     .740000000000D+02 -.578750000000D+02  .438482550273D-08 -.124229620687D+01
    -.290572643280D-05  .136531641474D-01  .606663525105D-05  .515360706329D+04
     .352800000000D+06 -.195577740669D-06 -.132969639108D+00  .260770320892D-06
     .977924293238D+00  .274625000000D+03 -.148417376109D+01 -.830427447779D-08
    -.461447792581D-09  .100000000000D+01  .222500000000D+04  .000000000000D+00
     .340000000000D+01  .000000000000D+00 -.111758708954D-07  .740000000000D+02
     .345600000000D+06  .400000000000D+01
13 22  9  1  2  0  0.0  .378855969757D-03  .738964445191D-11  .000000000000D+00
     .900000000000D+02 -.522812500000D+02  .449340145392D-08 -.171935960470D+01
    -.276416540146D-05  .637078203727D-02  .781007111073D-05  .515367399216D+04
     .352800000000D+06  .134110450745D-06  .308235741382D+01 -.670552253723D-07
     .969407738626D+00  .229656250000D+03  .929124523572D+00 -.796426031484D-08
    -.223580741607D-09  .100000000000D+01  .222500000000D+04  .000000000000D+00
     .340000000000D+01  .000000000000D+00 -.111758708954D-07  .900000000000D+02
     .345600000000D+06  .400000000000D+01
25 22  9  1  2  0  0.0  .367126893252D-03  .420641299570D-11  .000000000000D+00
     .590000000000D+02  .637500000000D+02  .502020911186D-08  .125691855877D+01
     .332109630108D-05  .105018012691D-01  .503286719322D-05  .515362634850D+04
     .352800000000D+06 -.240281224251D-06 -.125048916986D+01  .150874257088D-06
     .955326432358D+00  .280437500000D+03  .100292854464D+01 -.859535803116D-08
     .953611150304D-10  .100000000000D+01  .222500000000D+04  .000000000000D+00
     .240000000000D+01  .000000000000D+00  .558793544769D-08  .590000000000D+02
     .345600000000D+06  .400000000000D+01
23 22  9  1  2  0  0.0 -.385800376534D-04 -.102318153949D-11  .000000000000D+00
     .149000000000D+03  .232812500000D+02  .447232914760D-08  .203458132777D+01
     .115297734737D-05  .258462550119D-02  .590272247791D-05  .515372331047D+04
     .352800000000D+06 -.465661287308D-07  .187083203418D+01  .447034835815D-07
     .969751398564D+00  .268593750000D+03  .300023675613D+01 -.813783897366D-08
     .347157317639D-09  .100000000000D+01  .222500000000D+04  .000000000000D+00
     .240000000000D+01  .000000000000D+00 -.838190317154D-08  .405000000000D+03
     .345600000000D+06  .400000000000D+01
14 22  9  1  2  0  0.0 -.106429681182D-03  .216004991671D-11  .000000000000D+00
     .570000000000D+02  .737812500000D+02  .516057210140D-08  .139273731861D+01
     .390037894249D-05  .224657671060D-02  .475347042084D-05  .515365993500D+04
     .352800000000D+06  .104308128357D-06 -.120576424147D+01 -.279396772385D-07
     .951182645215D+00  .281125000000D+03 -.304134998555D+01 -.861821612615D-08
     .103218585183D-09  .100000000000D+01  .222500000000D+04  .000000000000D+00
     .240000000000D+01  .000000000000D+00 -.791624188423D-08  .825000000000D+03
     .345600000000D+06  .400000000000D+01
11 22  9  1  2  0  0.0 -.136378221214D-04 -.204636307899D-11  .000000000000D+00
     .143000000000D+03 -.192812500000D+02  .410838541646D-08 -.147614229255D+01
    -.800937414169D-06  .687387771904D-03  .104233622551D-04  .515363013458D+04
     .352800000000D+06 -.894069671631D-07  .905240876196D+00 -.223517417908D-07
     .963692130857D+00  .182031250000D+03  .305492534307D+01 -.780425364992D-08
     .164649715464D-09  .100000000000D+01  .222500000000D+04  .000000000000D+00
     .240000000000D+01  .000000000000D+00 -.838190317154D-08  .655000000000D+03
     .345600000000D+06  .400000000000D+01
28 22  9  1  2  0  0.0  .340149272233D-03 -.102318153949D-11  .000000000000D+00
     .630000000000D+02  .607812500000D+02  .489698969356D-08 -.810213917805D+00
     .321306288242D-05  .164954300271D-01  .491738319397D-05  .515366183662D+04
     .352800000000D+06 -.217929482460D-06 -.114943143116D+01 -.128522515297D-06
     .966846445561D+00  .290781250000D+03 -.126622198483D+01 -.870107672048D-08
     .188579283656D-09  .100000000000D+01  .222500000000D+04  .000000000000D+00
     .240000000000D+01  .630000000000D+02 -.111758708954D-07  .630000000000D+02
     .345600000000D+06  .400000000000D+01
